STARLINK-2022           
1 47643U 21012Z   23264.42490090  .00021350  00000+0  14478-2 0  9991
2 47643  53.0517 133.0649 0001275  99.1629 260.9505 15.06401759144053
